0 ST 1
1 25460U 98049A   13281.52357794 -.00000276  00000-0  10000-3 0  5798
2 25460 001.7889 073.7940 0004323 130.1766 143.8601 01.00269993 55404
0 ST 1
1 25460U 98049A   13282.76019132  .00000000  00000-0  10000-3 0  5813
2 25460 001.7909 073.7596 0004853 117.0676 243.3966 01.00265796 55425
0 ST 1
1 25460U 98049A   13282.86329539 -.00000281  00000-0  10000-3 0  5800
2 25460 001.7921 073.7878 0004391 130.6677 266.9806 01.00269391 55420
0 ST 1
1 25460U 98049A   13283.87703346 -.00000284  00000-0  10000-3 0  5818
2 25460 001.7943 073.7750 0004412 130.2216 273.3758 01.00269091 55438
0 ST 1
1 25460U 98049A   13286.43572902 -.00000290  00000-0  10000-3 0  5823
2 25460 001.7998 073.7481 0004530 129.2052 118.0496 01.00268489 55452
0 ST 1
1 25460U 98049A   13287.88544791 -.00000291  00000-0  10000-3 0  5830
2 25460 001.8030 073.7361 0004615 127.7834 282.7950 01.00268069 55472
0 ST 1
1 25460U 98049A   13289.74126851  .00000000  00000-0  10000-3 0  5848
2 25460 001.8076 073.7395 0005116 139.5388 220.9509 01.00265450 55498
0 ST 1
1 25460U 98049A   13290.92190659 -.00000287  00000-0  10000-3 0  5845
2 25460 001.8107 073.7275 0005142 141.6306 285.0490 01.00268396 55508
0 ST 1
1 25460U 98049A   13294.91235260 -.00000281  00000-0  10000-3 0  5851
2 25460 001.8188 073.6730 0005166 142.0361 285.1323 01.00267071 55543
